GLOBALSTAR M057         
1 25943U 99058A   25322.83922594 -.00000082  00000+0  10292-3 0  9997
2 25943  51.9990 269.2998 0002672 341.5768  18.4985 12.24828714185888
GLOBALSTAR M059         
1 25944U 99058B   25322.87405707 -.00000047  00000+0  49069-3 0  9999
2 25944  51.9982 148.6913 0000892  90.7686  47.6544 11.99987500592619
GLOBALSTAR M056         
1 25945U 99058C   25322.92356828 -.00000011  00000+0  89551-3 0  9996
2 25945  51.9931 146.5504 0001953 108.1591  40.7330 12.04781761181276
GLOBALSTAR M031         
1 25946U 99058D   25322.96498072 -.00000048  00000+0  43470-3 0  9999
2 25946  51.9992  29.4947 0001797 135.1263  36.3697 12.16043064183376
GLOBALSTAR M039         
1 25961U 99062A   25322.80331879 -.00000049  00000+0  30798-3 0  9995
2 25961  51.9818 157.7813 0002323 355.9155   4.1692 12.62337387199746
GLOBALSTAR M034         
1 25962U 99062B   25322.93848069 -.00000020  00000+0  97303-3 0  9998
2 25962  51.9900 329.1224 0014177 334.5943  27.5799 11.79451387156652
GLOBALSTAR M029         
1 25963U 99062C   25322.65068652 -.00000095  00000+0 -11017-3 0  9991
2 25963  51.9830  37.1977 0002716  72.6413  94.8352 11.99902999187663
GLOBALSTAR M061         
1 25964U 99062D   25322.78728860 -.00000052  00000+0  45587-3 0  9991
2 25964  51.9752 155.6016 0004744 252.3883 120.0630 11.76777863139380
